FLOCK 4V-7              
1 46291U 20061V   23287.73939155  .00082593  00000+0  21227-2 0  9997
2 46291  97.3892 356.9703 0001070  52.7572 307.3771 15.38972407172083
OSM-1 CICERO            
1 46294U 20061Y   23287.44484991  .00020865  00000+0  92077-3 0  9997
2 46294  97.3882 351.8668 0002434  15.8025 344.3286 15.21784918171820
TYVAK-0171              
1 46295U 20061Z   23287.75905189  .00109326  00000+0  23574-2 0  9994
2 46295  97.3942 359.6487 0000778 318.8727  41.2462 15.44161579172262
FLOCK 4V-10             
1 46296U 20061AA  23287.78245646  .00025903  00000+0  88665-3 0  9994
2 46296  97.3911 356.2236 0001410  43.3803 316.7549 15.30213314172102
FLOCK 4V-13             
1 46297U 20061AB  23287.44354411  .00027951  00000+0  96180-3 0  9995
2 46297  97.3906 355.9099 0000504  60.6213 299.5078 15.30027145172032
LEMUR-2-ETHANOAKES      
1 46298U 20061AC  23287.76121272  .00073840  00000+0  12534-2 0  9996
2 46298  97.3930   3.7264 0002538 204.5322 155.5809 15.51226241172552
LEMUR-2-OSCARLATOR      
1 46299U 20061AD  23287.75314555  .00095215  00000+0  11107-2 0  9999
2 46299  97.3960   6.1732 0000409 207.5442 152.5794 15.61328777172732
TTU100                  
1 46312U 20061AS  23287.84122699  .00040535  00000+0  13507-2 0  9992
2 46312  97.3923 356.3276 0001361 293.2384  66.8714 15.30988362172114
FLOCK 4V-1              
1 46313U 20061AT  23287.47982340  .00084217  00000+0  22954-2 0  9990
2 46313  97.3910 356.9812 0002007 309.0713  51.0353 15.37148100172113
LEMUR-2-SCHMIDTFALL     
1 46315U 20061AV  23287.65258080  .00198426  00000+0  16425-2 0  9993
2 46315  97.3925   7.4329 0005853 241.5571 118.5101 15.69629999172841
LEMUR-2-DJUPROERA       
1 46316U 20061AW  23287.73562650  .01309228  11094-2  15045-2 0  9994
2 46316  97.3702  11.0666 0010705 214.6821 145.3766 16.09165238173090
LEMUR-2-SQUAREJAWS      
1 46317U 20061AX  23287.73415387  .00263241  00000+0  15939-2 0  9996
2 46317  97.3917   8.8103 0005424 226.9646 133.1166 15.76819091172951
LEMUR-2-URSA-AVION      
1 46318U 20061AY  23287.48393192  .00152297  00000+0  11256-2 0  9994
2 46318  97.3901   8.0452 0004300 228.4157 131.6738 15.72498032172884
KEPLER-2 (TARS)         
1 46319U 20061AZ  23287.18183577  .00031850  00000+0  12563-2 0  9999
2 46319  97.3897 353.7468 0000657 259.9063 100.2101 15.25494103171947
NAPA-1                  
1 46320U 20061BA  23287.85723399  .00014495  00000+0  71938-3 0  9995
2 46320  97.3909 351.6503 0001274 279.1125  80.9964 15.17802346171864
STARLINK-1734           
1 46325U 20062A   23287.48042205  .00011075  00000+0  76069-3 0  9991
2 46325  53.0531 309.5623 0001578  83.1823 276.9345 15.06427579173332
STARLINK-1654           
1 46326U 20062B   23287.47816401  .00030631  00000+0  20660-2 0  9992
2 46326  53.0550 354.8160 0001340 109.0417 251.0717 15.06406523172092
STARLINK-1673           
1 46327U 20062C   23287.50024870  .00029552  00000+0  19945-2 0  9992
2 46327  53.0554 354.4768 0001670  93.1706 266.9474 15.06400384172091
STARLINK-1686           
1 46328U 20062D   23287.41361985  .00006780  00000+0  47355-3 0  9999
2 46328  53.0548 334.8651 0001435  91.8028 268.3125 15.06408024172367
STARLINK-1695           
1 46329U 20062E   23287.84488717  .00019319  00000+0  13126-2 0  9990
2 46329  53.0537 332.9276 0001540  87.3328 272.7837 15.06391177172604
STARLINK-1710           
1 46330U 20062F   23287.43573965  .00004207  00000+0  30113-3 0  9993
2 46330  53.0550 334.7681 0001422  96.5216 263.5935 15.06405370172370
STARLINK-1719           
1 46331U 20062G   23287.60345409  .00028774  00000+0  19424-2 0  9999
2 46331  53.0565 354.0102 0001501  77.5892 282.5265 15.06406790172292
STARLINK-1721           
1 46332U 20062H   23287.53248180  .00021143  00000+0  90666-3 0  9991
2 46332  53.0476 335.2996 0003339  60.0533 300.0794 15.22712370172370
STARLINK-1723           
1 46333U 20062J   23287.49656010  .00028944  00000+0  19542-2 0  9991
2 46333  53.0550 354.4953 0001179 119.4519 240.6588 15.06397720172092
STARLINK-1725           
1 46334U 20062K   23287.83017342  .00054920  00000+0  36797-2 0  9993
2 46334  53.0553 333.2771 0001308  86.2634 273.8505 15.06376130172608
STARLINK-1727           
1 46335U 20062L   23287.45970326  .00023268  00000+0  15759-2 0  9998
2 46335  53.0547 354.6611 0001424 104.3488 255.7659 15.06398208172092
STARLINK-1738           
1 46336U 20062M   23287.84857510  .00017878  00000+0  12161-2 0  9995
2 46336  53.0549 332.9108 0001351  95.5142 264.6001 15.06398046172610
STARLINK-1750           
1 46337U 20062N   23287.53157640  .00039435  00000+0  26516-2 0  9991
2 46337  53.0540 334.3382 0001653  68.5311 291.5854 15.06399201172388
STARLINK-1752           
1 46338U 20062P   23287.58133740  .00002447  00000+0  18309-3 0  9997
2 46338  53.0553 354.1133 0001773  85.3794 274.7398 15.06404103172285
STARLINK-1759           
1 46340U 20062R   23287.45502512  .00032898  00000+0  22175-2 0  9991
2 46340  53.0543 354.3348 0001481  84.0194 276.0964 15.06394432172279
STARLINK-1760           
1 46341U 20062S   23287.56105738 -.00005066  00000+0 -32138-3 0  9993
2 46341  53.0557 334.2041 0001230  83.4047 276.7082 15.06406400172394
STARLINK-1762           
1 46342U 20062T   23287.47444539  .00027369  00000+0  18492-2 0  9993
2 46342  53.0550 354.5915 0001427 106.0379 254.0767 15.06399604172094
STARLINK-1764           
1 46343U 20062U   23287.53525895  .00038761  00000+0  26068-2 0  9992
2 46343  53.0540 334.3201 0001497 102.9494 257.1662 15.06400448172387
STARLINK-1765           
1 46344U 20062V   23287.42101774  .00040929  00000+0  27523-2 0  9993
2 46344  53.0557 334.8327 0001594  91.1871 268.9301 15.06378483172367
STARLINK-1767           
1 46345U 20062W   23287.48918979  .00039049  00000+0  26258-2 0  9998
2 46345  53.0561 354.5256 0001307 101.5795 258.5341 15.06401776172097
STARLINK-1547           
1 46347U 20062Y   23287.77899053  .00000129  00000+0  27588-4 0  9999
2 46347  53.0544 308.2234 0001868  86.9003 273.2199 15.06406768172947
STARLINK-1553           
1 46348U 20062Z   23287.42468231  .00019649  00000+0  13346-2 0  9994
2 46348  53.0546 334.8155 0001214  87.6051 272.5077 15.06391776172368
STARLINK-1575           
1 46349U 20062AA  23287.75318922  .00004552  00000+0  32414-3 0  9997
2 46349  53.0549 308.3397 0001937  78.6672 281.4534 15.06415711172944
STARLINK-1617           
1 46350U 20062AB  23287.45233276  .00025280  00000+0  17101-2 0  9990
2 46350  53.0545 354.6914 0001458  80.8768 279.2386 15.06396622172095
STARLINK-1646           
1 46351U 20062AC  23287.85594065  .00020994  00000+0  14244-2 0  9993
2 46351  53.0544 332.8801 0001388  88.5794 271.5354 15.06392044172616
STARLINK-1653           
1 46352U 20062AD  23287.83751578  .00041092  00000+0  27636-2 0  9997
2 46352  53.0546 332.9646 0002526  85.6258 274.5020 15.06371235172617
STARLINK-1656           
1 46353U 20062AE  23287.50393523  .00008684  00000+0  60115-3 0  9994
2 46353  53.0546 354.4599 0001720  96.7264 263.3921 15.06402004172096
STARLINK-1657           
1 46354U 20062AF  23287.55922564  .00035126  00000+0  23653-2 0  9999
2 46354  53.0553 354.2113 0001228 104.7989 255.3136 15.06400397172106
STARLINK-1661           
1 46355U 20062AG  23287.46707554  .00029555  00000+0  19947-2 0  9990
2 46355  53.0545 354.6272 0001729 103.2496 256.8686 15.06400401172091
STARLINK-1665           
1 46356U 20062AH  23287.54816782  .00005736  00000+0  40359-3 0  9991
2 46356  53.0545 354.3047 0001571 114.1963 245.9190 15.06408421172105
STARLINK-1666           
1 46357U 20062AJ  23287.40993490  .00035972  00000+0  24219-2 0  9990
2 46357  53.0539 334.8801 0001405  78.4439 281.6708 15.06394825172368
STARLINK-1690           
1 46358U 20062AK  23287.58871255  .00031482  00000+0  21227-2 0  9992
2 46358  53.0552 354.0788 0000929 106.2237 253.8854 15.06404713172112
STARLINK-1707           
1 46359U 20062AL  23287.76793721  .00003356  00000+0  24403-3 0  9993
2 46359  53.0537 308.2710 0001357  94.3636 265.7508 15.06403336172947
STARLINK-1713           
1 46360U 20062AM  23287.32562296  .00033830  00000+0  22762-2 0  9993
2 46360  53.0539 310.2596 0001713  97.8325 262.2858 15.06448565172881
STARLINK-1722           
1 46361U 20062AN  23287.75961875  .00004231  00000+0  30270-3 0  9994
2 46361  53.0541 308.2995 0001591  96.0081 264.1089 15.06407746172938
STARLINK-1726           
1 46362U 20062AP  23287.34036127  .00035459  00000+0  23832-2 0  9994
2 46362  53.0539 310.1937 0001861  85.6054 274.5147 15.06465594172887
STARLINK-1739           
1 46363U 20062AQ  23287.33204747  .00034758  00000+0  23375-2 0  9992
2 46363  53.0537 310.2224 0001733  94.6655 265.4531 15.06452771172701
STARLINK-1763           
1 46364U 20062AR  23287.33489462  .00031436  00000+0  21165-2 0  9997
2 46364  53.0532 290.7257 0001777  96.6547 263.4644 15.06459260173158
STARLINK-1550           
1 46365U 20062AS  23287.58335648  .01402932  00000+0  50480-1 0  9996
2 46365  53.0541 308.6185 0001505  62.6486 225.7876 15.25326689172901
STARLINK-1651           
1 46366U 20062AT  23287.76424786  .00008566  00000+0  59282-3 0  9994
2 46366  53.0538 308.2910 0001402  67.2258 292.8879 15.06426552172945
STARLINK-1658           
1 46368U 20062AV  23287.43110849  .00034887  00000+0  23495-2 0  9993
2 46368  53.0545 334.7798 0001417  92.1845 267.9306 15.06399346172373
STARLINK-1670           
1 46370U 20062AX  23287.52788570  .00037536  00000+0  25259-2 0  9992
2 46370  53.0546 334.3520 0001431  72.1970 287.9175 15.06393210172380
STARLINK-1688           
1 46371U 20062AY  23287.52052931  .00034123  00000+0  23019-2 0  9999
2 46371  53.0538 334.3884 0001877  65.4210 294.6974 15.06347023172384
STARLINK-1689           
1 46372U 20062AZ  23287.46338948  .00027208  00000+0  18387-2 0  9996
2 46372  53.0551 354.6434 0001447  98.9049 261.2104 15.06394013172094
